start=new Date('2022-11-13T00:00:00.000Z').valueOf();
sats=[{"TLE_LINE2":"2 53968  53.2168 268.4754 0001516  50.3528 337.8896 15.17152290  1301","MEAN_ANOMALY":"337.8896","RCS_SIZE":"LARGE","ECCENTRICITY":"0.00015160","SITE":"AFWTR","LAUNCH_DATE":"2022-10-05","GP_ID":"217590616","CLASSIFICATION_TYPE":"U","ARG_OF_PERICENTER":"50.3528","RA_OF_ASC_NODE":"268.4754","DECAY_DATE":null,"EPOCH":"2022-11-12T22:00:00.999936","MEAN_MOTION":"15.17152290","EPHEMERIS_TYPE":"0","REV_AT_EPOCH":"130","MEAN_ELEMENT_THEORY":"SGP4","REF_FRAME":"TEME","TIME_SYSTEM":"UTC","APOAPSIS":"515.499","NORAD_CAT_ID":"53968","PERIAPSIS":"513.409","TLE_LINE1":"1 53968U 22125E   22316.91667824 -.01250623  00000-0 -68056-1 0  9997","PERIOD":"94.915","SEMIMAJOR_AXIS":"6892.589","INCLINATION":"53.2168","OBJECT_TYPE":"PAYLOAD","BSTAR":"-0.06805600000000","ELEMENT_SET_NO":"999","MEAN_MOTION_DOT":"-0.01250623","MEAN_MOTION_DDOT":"0.0000000000000","COUNTRY_CODE":"US","CENTER_NAME":"EARTH","FILE":"3652635","OBJECT_NAME":"STARLINK-4629","OBJECT_ID":"2022-125E"},{"SITE":"AFWTR","ECCENTRICITY":"0.00016850","LAUNCH_DATE":"2022-10-05","GP_ID":"217589853","MEAN_ANOMALY":"316.7393","TLE_LINE2":"2 53969  53.2170 268.5405 0001685  38.4380 316.7393 15.16527435  1303","RCS_SIZE":"LARGE","MEAN_MOTION":"15.16527435","REV_AT_EPOCH":"130","EPHEMERIS_TYPE":"0","ARG_OF_PERICENTER":"38.4380","CLASSIFICATION_TYPE":"U","EPOCH":"2022-11-12T22:00:00.999936","DECAY_DATE":null,"RA_OF_ASC_NODE":"268.5405","SEMIMAJOR_AXIS":"6894.482","PERIOD":"94.954","APOAPSIS":"517.509","TIME_SYSTEM":"UTC","MEAN_ELEMENT_THEORY":"SGP4","REF_FRAME":"TEME","TLE_LINE1":"1 53969U 22125F   22316.91667824 -.01251578  00000-0 -69347-1 0  9992","PERIAPSIS":"515.186","NORAD_CAT_ID":"53969","CENTER_NAME":"EARTH","COUNTRY_CODE":"US","MEAN_MOTION_DOT":"-0.01251578","MEAN_MOTION_DDOT":"0.0000000000000","OBJECT_ID":"2022-125F","OBJECT_NAME":"STARLINK-4468","FILE":"3652635","ELEMENT_SET_NO":"999","OBJECT_TYPE":"PAYLOAD","BSTAR":"-0.06934700000000","INCLINATION":"53.2170"},{"APOAPSIS":"443.058","TIME_SYSTEM":"UTC","MEAN_ELEMENT_THEORY":"SGP4","REF_FRAME":"TEME","TLE_LINE1":"1 53970U 22125G   22316.91667824 -.01152916  00000-0 -29829-1 0  9991","PERIAPSIS":"441.247","NORAD_CAT_ID":"53970","SEMIMAJOR_AXIS":"6820.288","PERIOD":"93.425","ELEMENT_SET_NO":"999","OBJECT_TYPE":"PAYLOAD","BSTAR":"-0.02982900000000","INCLINATION":"53.2171","CENTER_NAME":"EARTH","COUNTRY_CODE":"US","MEAN_MOTION_DDOT":"0.0000000000000","MEAN_MOTION_DOT":"-0.01152916","OBJECT_NAME":"STARLINK-4567","OBJECT_ID":"2022-125G","FILE":"3652635","MEAN_ANOMALY":"64.8087","TLE_LINE2":"2 53970  53.2171 265.3767 0001328  74.2579  64.8087 15.41340967  1306","RCS_SIZE":"LARGE","SITE":"AFWTR","ECCENTRICITY":"0.00013280","GP_ID":"217590456","LAUNCH_DATE":"2022-10-05","ARG_OF_PERICENTER":"74.2579","CLASSIFICATION_TYPE":"U","EPOCH":"2022-11-12T22:00:00.999936","DECAY_DATE":null,"RA_OF_ASC_NODE":"265.3767","MEAN_MOTION":"15.41340967","REV_AT_EPOCH":"130","EPHEMERIS_TYPE":"0"},{"SITE":"AFWTR","ECCENTRICITY":"0.00017800","GP_ID":"217590023","LAUNCH_DATE":"2022-10-05","MEAN_ANOMALY":"337.3620","TLE_LINE2":"2 53971  53.2170 268.5077 0001780  34.4104 337.3620 15.16835442  1309","RCS_SIZE":"LARGE","MEAN_MOTION":"15.16835442","REV_AT_EPOCH":"130","EPHEMERIS_TYPE":"0","ARG_OF_PERICENTER":"34.4104","CLASSIFICATION_TYPE":"U","EPOCH":"2022-11-12T22:00:00.999936","DECAY_DATE":null,"RA_OF_ASC_NODE":"268.5077","SEMIMAJOR_AXIS":"6893.549","PERIOD":"94.934","APOAPSIS":"516.641","TIME_SYSTEM":"UTC","MEAN_ELEMENT_THEORY":"SGP4","REF_FRAME":"TEME","TLE_LINE1":"1 53971U 22125H   22316.91667824 -.01243732  00000-0 -68264-1 0  9995","PERIAPSIS":"514.187","NORAD_CAT_ID":"53971","CENTER_NAME":"EARTH","COUNTRY_CODE":"US","MEAN_MOTION_DDOT":"0.0000000000000","MEAN_MOTION_DOT":"-0.01243732","OBJECT_ID":"2022-125H","OBJECT_NAME":"STARLINK-4639","FILE":"3652635","ELEMENT_SET_NO":"999","OBJECT_TYPE":"PAYLOAD","BSTAR":"-0.06826400000000","INCLINATION":"53.2170"},{"EPOCH":"2022-11-12T22:00:00.999936","DECAY_DATE":null,"RA_OF_ASC_NODE":"265.3255","ARG_OF_PERICENTER":"73.3300","CLASSIFICATION_TYPE":"U","REV_AT_EPOCH":"130","EPHEMERIS_TYPE":"0","MEAN_MOTION":"15.43262773","RCS_SIZE":"LARGE","MEAN_ANOMALY":"91.3749","TLE_LINE2":"2 53972  53.2171 265.3255 0001400  73.3300  91.3749 15.43262773  1303","LAUNCH_DATE":"2022-10-05","GP_ID":"217590353","SITE":"AFWTR","ECCENTRICITY":"0.00014000","BSTAR":"-0.02824700000000","OBJECT_TYPE":"PAYLOAD","ELEMENT_SET_NO":"999","INCLINATION":"53.2171","OBJECT_ID":"2022-125J","OBJECT_NAME":"STARLINK-5157","FILE":"3652635","CENTER_NAME":"EARTH","COUNTRY_CODE":"US","MEAN_MOTION_DDOT":"0.0000000000000","MEAN_MOTION_DOT":"-0.01163897","TLE_LINE1":"1 53972U 22125J   22316.91667824 -.01163897  00000-0 -28247-1 0  9996","PERIAPSIS":"435.535","NORAD_CAT_ID":"53972","APOAPSIS":"437.443","TIME_SYSTEM":"UTC","REF_FRAME":"TEME","MEAN_ELEMENT_THEORY":"SGP4","SEMIMAJOR_AXIS":"6814.624","PERIOD":"93.309"},{"OBJECT_NAME":"STARLINK-5156","OBJECT_ID":"2022-125K","FILE":"3652635","COUNTRY_CODE":"US","CENTER_NAME":"EARTH","MEAN_MOTION_DDOT":"0.0000000000000","MEAN_MOTION_DOT":"-0.01230752","INCLINATION":"53.2169","ELEMENT_SET_NO":"999","OBJECT_TYPE":"PAYLOAD","BSTAR":"-0.06631200000000","PERIOD":"94.896","SEMIMAJOR_AXIS":"6891.700","TLE_LINE1":"1 53973U 22125K   22316.91667824 -.01230752  00000-0 -66312-1 0  9997","NORAD_CAT_ID":"53973","PERIAPSIS":"512.448","APOAPSIS":"514.682","REF_FRAME":"TEME","MEAN_ELEMENT_THEORY":"SGP4","TIME_SYSTEM":"UTC","EPHEMERIS_TYPE":"0","REV_AT_EPOCH":"130","MEAN_MOTION":"15.17445918","DECAY_DATE":null,"EPOCH":"2022-11-12T22:00:00.999936","RA_OF_ASC_NODE":"268.4428","CLASSIFICATION_TYPE":"U","ARG_OF_PERICENTER":"42.0076","LAUNCH_DATE":"2022-10-05","GP_ID":"217589438","ECCENTRICITY":"0.00016210","SITE":"AFWTR","RCS_SIZE":"LARGE","MEAN_ANOMALY":"2.6253","TLE_LINE2":"2 53973  53.2169 268.4428 0001621  42.0076   2.6253 15.17445918  1305"},{"INCLINATION":"53.2154","BSTAR":"-0.00071604000000","OBJECT_TYPE":"PAYLOAD","ELEMENT_SET_NO":"999","OBJECT_ID":"2022-125L","OBJECT_NAME":"STARLINK-5159","FILE":"3652635","COUNTRY_CODE":"US","CENTER_NAME":"EARTH","MEAN_MOTION_DOT":"-0.00100295","MEAN_MOTION_DDOT":"0.0000000000000","TLE_LINE1":"1 53974U 22125L   22316.91667824 -.00100295  00000-0 -71604-3 0  9997","NORAD_CAT_ID":"53974","PERIAPSIS":"348.373","APOAPSIS":"350.658","REF_FRAME":"TEME","MEAN_ELEMENT_THEORY":"SGP4","TIME_SYSTEM":"UTC","PERIOD":"91.528","SEMIMAJOR_AXIS":"6727.650","EPOCH":"2022-11-12T22:00:00.999936","DECAY_DATE":null,"RA_OF_ASC_NODE":"263.4849","CLASSIFICATION_TYPE":"U","ARG_OF_PERICENTER":"36.8444","EPHEMERIS_TYPE":"0","REV_AT_EPOCH":"130","MEAN_MOTION":"15.73285845","RCS_SIZE":"MEDIUM","MEAN_ANOMALY":"329.2776","TLE_LINE2":"2 53974  53.2154 263.4849 0001698  36.8444 329.2776 15.73285845  1307","GP_ID":"217590193","LAUNCH_DATE":"2022-10-05","ECCENTRICITY":"0.00016980","SITE":"AFWTR"},{"SEMIMAJOR_AXIS":"6817.441","PERIOD":"93.367","APOAPSIS":"440.477","TIME_SYSTEM":"UTC","REF_FRAME":"TEME","MEAN_ELEMENT_THEORY":"SGP4","TLE_LINE1":"1 53975U 22125M   22316.91667824 -.01164547  00000-0 -29192-1 0  9992","PERIAPSIS":"438.135","NORAD_CAT_ID":"53975","CENTER_NAME":"EARTH","COUNTRY_CODE":"US","MEAN_MOTION_DDOT":"0.0000000000000","MEAN_MOTION_DOT":"-0.01164547","OBJECT_ID":"2022-125M","OBJECT_NAME":"STARLINK-5137","FILE":"3652635","BSTAR":"-0.02919200000000","OBJECT_TYPE":"PAYLOAD","ELEMENT_SET_NO":"999","INCLINATION":"53.2169","SITE":"AFWTR","ECCENTRICITY":"0.00017180","GP_ID":"217589608","LAUNCH_DATE":"2022-10-05","MEAN_ANOMALY":"112.8780","TLE_LINE2":"2 53975  53.2169 265.3495 0001718  39.6713 112.8780 15.42306442  1309","RCS_SIZE":"LARGE","MEAN_MOTION":"15.42306442","REV_AT_EPOCH":"130","EPHEMERIS_TYPE":"0","ARG_OF_PERICENTER":"39.6713","CLASSIFICATION_TYPE":"U","EPOCH":"2022-11-12T22:00:00.999936","DECAY_DATE":null,"RA_OF_ASC_NODE":"265.3495"},{"REV_AT_EPOCH":"130","EPHEMERIS_TYPE":"0","MEAN_MOTION":"15.73237336","DECAY_DATE":null,"EPOCH":"2022-11-12T22:00:00.999936","RA_OF_ASC_NODE":"263.7462","ARG_OF_PERICENTER":"37.5134","CLASSIFICATION_TYPE":"U","GP_ID":"217590617","LAUNCH_DATE":"2022-10-05","SITE":"AFWTR","ECCENTRICITY":"0.00017020","RCS_SIZE":"LARGE","MEAN_ANOMALY":"201.1464","TLE_LINE2":"2 53976  53.2184 263.7462 0001702  37.5134 201.1464 15.73237336  1300","OBJECT_ID":"2022-125N","OBJECT_NAME":"STARLINK-5134","FILE":"3652635","CENTER_NAME":"EARTH","COUNTRY_CODE":"US","MEAN_MOTION_DOT":"-0.00056402","MEAN_MOTION_DDOT":"0.0000000000000","OBJECT_TYPE":"PAYLOAD","BSTAR":"-0.00039948000000","ELEMENT_SET_NO":"999","INCLINATION":"53.2184","SEMIMAJOR_AXIS":"6727.789","PERIOD":"91.531","TLE_LINE1":"1 53976U 22125N   22316.91667824 -.00056402  00000-0 -39948-3 0  9994","PERIAPSIS":"348.509","NORAD_CAT_ID":"53976","APOAPSIS":"350.799","TIME_SYSTEM":"UTC","MEAN_ELEMENT_THEORY":"SGP4","REF_FRAME":"TEME"},{"ELEMENT_SET_NO":"999","OBJECT_TYPE":"PAYLOAD","BSTAR":"-0.02784700000000","INCLINATION":"53.2169","FILE":"3652635","OBJECT_NAME":"STARLINK-5094","OBJECT_ID":"2022-125P","MEAN_MOTION_DOT":"-0.01171210","MEAN_MOTION_DDOT":"0.0000000000000","CENTER_NAME":"EARTH","COUNTRY_CODE":"US","PERIAPSIS":"433.668","NORAD_CAT_ID":"53977","TLE_LINE1":"1 53977U 22125P   22316.91667824 -.01171210  00000-0 -27847-1 0  9994","TIME_SYSTEM":"UTC","MEAN_ELEMENT_THEORY":"SGP4","REF_FRAME":"TEME","APOAPSIS":"435.663","SEMIMAJOR_AXIS":"6812.800","PERIOD":"93.271","RA_OF_ASC_NODE":"265.3082","EPOCH":"2022-11-12T22:00:00.999936","DECAY_DATE":null,"ARG_OF_PERICENTER":"53.8213","CLASSIFICATION_TYPE":"U","REV_AT_EPOCH":"130","EPHEMERIS_TYPE":"0","MEAN_MOTION":"15.43882616","RCS_SIZE":"LARGE","TLE_LINE2":"2 53977  53.2169 265.3082 0001464  53.8213 119.4382 15.43882616  1308","MEAN_ANOMALY":"119.4382","GP_ID":"217589854","LAUNCH_DATE":"2022-10-05","SITE":"AFWTR","ECCENTRICITY":"0.00014640"}];
